{
"type": "FeatureCollection",
"name": "africa",
"crs": { "type": "name", "properties": { "name": "urn:ogc:def:crs:OGC:1.3:CRS84" } },
"features": [
{ "type": "Feature", "properties": { }, "geometry": { "type": "Polygon", "coordinates": [ [ [ -45.762643191495982, 24.253946420287399 ], [ -44.366050829788961, 12.881694332101688 ], [ -34.390391103310264, 6.098245718096173 ], [ -12.044913315997988, -2.879848035734646 ], [ -16.344158427067452, -43.604450581832246 ], [ 4.8323497667268, -54.016309570402022 ], [ 32.047502675037833, -47.37129041582962 ], [ 66.164258939594959, -27.419970962872242 ], [ 67.691507622171343, -3.593469402413547 ], [ 56.26014535929211, 14.501810811803924 ], [ 43.787338193707313, 12.065134406901766 ], [ 42.759659922007977, 13.435372102500924 ], [ 42.91260718960477, 14.14375944715983 ], [ 34.804893250144339, 28.02062069282292 ], [ 34.58507321552829, 27.996196244532246 ], [ 34.542330431019614, 28.121371542021944 ], [ 34.90264238772204, 29.490619297980246 ], [ 34.902821917346373, 29.490978357228908 ], [ 34.902958359860868, 29.492084259714812 ], [ 34.903683659543177, 29.493491771969598 ], [ 34.895407149057917, 29.512583303828066 ], [ 34.884938682877518, 29.527571409597346 ], [ 34.878555524305874, 29.543457687793925 ], [ 34.87280495448298, 29.579567724815039 ], [ 34.866463184585804, 29.597635786220195 ], [ 34.877112571771626, 29.61331072690944 ], [ 34.878787756272764, 29.643823016037356 ], [ 34.856641279255406, 29.687913226523666 ], [ 34.848630389938094, 29.758833546300593 ], [ 34.826068645478216, 29.807281510380633 ], [ 34.814173550571567, 29.841975771922133 ], [ 34.772302728658744, 29.951111813932339 ], [ 34.753321179483045, 30.003904621418108 ], [ 34.748183554710479, 30.018857541656036 ], [ 34.747641964378992, 30.020472941125039 ], [ 34.74754203692035, 30.020763592485316 ], [ 34.747365600223617, 30.021185609584801 ], [ 34.745947297202292, 30.024565748697025 ], [ 34.732816145135608, 30.055821108516181 ], [ 34.691223310346828, 30.159799417261713 ], [ 34.611489963250186, 30.371025211580172 ], [ 34.543545903036794, 30.412944577115297 ], [ 34.54186928528312, 30.441893245645907 ], [ 34.557750601158766, 30.494627302404691 ], [ 34.518651379048805, 30.53252513495282 ], [ 34.51681243748375, 30.546396021368626 ], [ 34.518770281254945, 30.592487634766083 ], [ 34.496988518086724, 30.679208919916899 ], [ 34.403620597321137, 30.858435504149405 ], [ 34.398341403666521, 30.87264871783492 ], [ 34.37081562219818, 30.943343179121968 ], [ 34.253414484449337, 31.258495081499454 ], [ 34.239988978915157, 31.295914874792473 ], [ 34.23959404355827, 31.295980697351954 ], [ 34.239228532105564, 31.296170348835986 ], [ 34.235843975733395, 31.296401612643368 ], [ 34.23566277621736, 31.296443313353908 ], [ 34.235520383944234, 31.296618382751547 ], [ 34.219187334884083, 31.322931161249471 ], [ 33.04884731309361, 33.271282990913789 ], [ 14.980301247191056, 36.084428297811606 ], [ 10.229745593924715, 38.460394278509611 ], [ 0.503602492420784, 36.820100909692371 ], [ -7.371800937046022, 35.674076774341486 ], [ -12.12058631488161, 36.668586801113335 ], [ -13.403815815787105, 36.888028236238213 ], [ -15.959765871847097, 37.00420778424094 ], [ -18.864254571915268, 36.810575204236393 ], [ -24.090791396285837, 36.562116676343777 ], [ -27.419436006677493, 38.394115662285394 ], [ -28.926834636830552, 39.241248776751576 ], [ -39.288203372531193, 32.688285962668431 ], [ -45.762643191495982, 24.253946420287399 ] ] ] } }
]
}
